NORAD_CAT_ID,OBJECT_NAME,OBJECT_TYPE,EPOCH,MEAN_MOTION,ECCENTRICITY,INCLINATION,RA_OF_ASC_NODE,ARG_OF_PERICENTER,MEAN_ANOMALY,BSTAR,MEAN_MOTION_DOT,MEAN_MOTION_DDOT,TLE_LINE0,TLE_LINE1,TLE_LINE2,SEMIMAJOR_AXIS,PERIOD,APOGEE,PERIGEE,DECAYED
55764.0,STARLINK-5499,PAYLOAD,2024-07-16 14:36:11,14.98333418,0.0002936,70.001,300.131,265.8105,94.2719,8.0382e-05,8.66e-06,0.0,0 STARLINK-5499,1 55764U 23028Z   24198.60846833  .00000866  00000-0  80382-4 0  9999,2 55764  70.0010 300.1310 0002936 265.8105  94.2719 14.98333418 76494,6950.182,96.107,574.088,570.007,0.0
55764.0,STARLINK-5499,PAYLOAD,2024-07-16 16:12:19,14.98336736,0.0002939,70.0009,299.9627,267.3042,92.7781,7.4701e-05,7.99e-06,0.0,0 STARLINK-5499,1 55764U 23028Z   24198.67522615  .00000799  00000-0  74701-4 0  9998,2 55764  70.0009 299.9627 0002939 267.3042  92.7781 14.98336736 76508,6950.172,96.107,574.08,569.994,0.0
55764.0,STARLINK-5499,PAYLOAD,2024-07-17 13:02:05,14.98325375,0.0003102,70.0002,297.7741,267.9937,92.0867,-6.3397e-06,-1.69e-06,0.0,0 STARLINK-5499,1 55764U 23028Z   24199.54311758 -.00000169  00000-0 -63397-5 0  9992,2 55764  70.0002 297.7741 0003102 267.9937  92.0867 14.98325375 76635,6950.207,96.107,574.228,569.916,0.0
55764.0,STARLINK-5499,PAYLOAD,2024-07-17 14:38:13,14.98327763,0.0003362,69.9994,297.605,270.4793,89.5981,-1.8086e-05,-3.09e-06,0.0,0 STARLINK-5499,1 55764U 23028Z   24199.60987623 -.00000309  00000-0 -18086-4 0  9999,2 55764  69.9994 297.6050 0003362 270.4793  89.5981 14.98327763 76643,6950.2,96.107,574.401,569.728,0.0
55764.0,STARLINK-5499,PAYLOAD,2024-07-17 16:14:21,14.98328006,0.0003139,70.0,297.4372,268.5676,91.5123,1.9761e-05,1.43e-06,0.0,0 STARLINK-5499,1 55764U 23028Z   24199.67663575  .00000143  00000-0  19761-4 0  9998,2 55764  70.0000 297.4372 0003139 268.5676  91.5123 14.98328006 76652,6950.199,96.107,574.246,569.882,0.0
55764.0,STARLINK-5499,PAYLOAD,2024-07-18 13:04:07,14.98319606,0.0003355,69.9994,295.2495,269.4357,90.6417,-5.7953e-05,-7.84e-06,0.0,0 STARLINK-5499,1 55764U 23028Z   24200.54452614 -.00000784  00000-0 -57953-4 0  9995,2 55764  69.9994 295.2495 0003355 269.4357  90.6417 14.98319606 76785,6950.225,96.108,574.422,569.758,0.0
55764.0,STARLINK-5499,PAYLOAD,2024-07-18 16:16:23,14.98322109,0.0003208,69.9997,294.9127,267.1362,92.943,-3.3159e-05,-4.89e-06,0.0,0 STARLINK-5499,1 55764U 23028Z   24200.67804438 -.00000489  00000-0 -33159-4 0  9998,2 55764  69.9997 294.9127 0003208 267.1362  92.9430 14.98322109 76809,6950.217,96.108,574.312,569.853,0.0
55764.0,STARLINK-5499,PAYLOAD,2024-07-19 13:06:06,14.98344168,0.0003337,69.9992,292.724,269.8874,90.1903,0.00034568,4.036e-05,0.0,0 STARLINK-5499,1 55764U 23028Z   24201.54590491  .00004036  00000-0  34568-3 0  9990,2 55764  69.9992 292.7240 0003337 269.8874  90.1903 14.98344168 76934,6950.149,96.106,574.333,569.695,0.0
55764.0,STARLINK-5499,PAYLOAD,2024-07-19 14:42:13,14.98348244,0.0003248,69.9994,292.5554,270.7562,89.3225,0.0003963,4.641e-05,0.0,0 STARLINK-5499,1 55764U 23028Z   24201.61266200  .00004641  00000-0  39630-3 0  9993,2 55764  69.9994 292.5554 0003248 270.7562  89.3225 14.98348244 76945,6950.136,96.106,574.259,569.744,0.0
55764.0,STARLINK-5499,PAYLOAD,2024-07-19 16:18:22,14.98351787,0.0003249,70.001,292.387,270.425,89.6537,0.00061609,7.27e-05,0.0,0 STARLINK-5499,1 55764U 23028Z   24201.67942678  .00007270  00000-0  61609-3 0  9991,2 55764  70.0010 292.3870 0003249 270.4250  89.6537 14.98351787 76954,6950.126,96.106,574.249,569.732,0.0
55764.0,STARLINK-5499,PAYLOAD,2024-07-20 05:07:27,14.98331174,0.0003211,70.001,291.04,270.9236,89.1555,0.0003498,4.083e-05,0.0,0 STARLINK-5499,1 55764U 23028Z   24202.21351707  .00004083  00000-0  34980-3 0  9990,2 55764  70.0010 291.0400 0003211 270.9236  89.1555 14.98331174 77030,6950.189,96.107,574.286,569.823,0.0
55764.0,STARLINK-5499,PAYLOAD,2024-07-20 13:08:07,14.98350037,0.0003474,70.0013,290.1978,280.3774,79.6994,0.00080742,9.559e-05,0.0,0 STARLINK-5499,1 55764U 23028Z   24202.54730962  .00009559  00000-0  80742-3 0  9990,2 55764  70.0013 290.1978 0003474 280.3774  79.6994 14.98350037 77081,6950.131,96.106,574.41,569.581,0.0
55764.0,STARLINK-5499,PAYLOAD,2024-07-20 14:44:15,14.98344744,0.0003599,70.0012,290.0292,282.7736,77.3021,0.0016227,0.0001933,0.0,0 STARLINK-5499,1 55764U 23028Z   24202.61407080  .00019330  00000-0  16227-2 0  9994,2 55764  70.0012 290.0292 0003599 282.7736  77.3021 14.98344744 77095,6950.147,96.106,574.514,569.511,0.0
55764.0,STARLINK-5499,PAYLOAD,2024-07-20 16:20:23,14.98345216,0.0003197,70.0014,289.861,274.8324,85.247,0.0015405,0.00018344,0.0,0 STARLINK-5499,1 55764U 23028Z   24202.68083011  .00018344  00000-0  15405-2 0  9996,2 55764  70.0014 289.8610 0003197 274.8324  85.2470 14.98345216 77109,6950.146,96.106,574.233,569.789,0.0
55764.0,STARLINK-5499,PAYLOAD,2024-07-21 05:09:28,14.98333175,0.0002473,70.0033,288.5159,264.9941,95.0936,0.00048883,5.745e-05,0.0,0 STARLINK-5499,1 55764U 23028Z   24203.21491220  .00005745  00000-0  48883-3 0  9999,2 55764  70.0033 288.5159 0002473 264.9941  95.0936 14.98333175 77180,6950.183,96.107,573.767,570.329,0.0
55764.0,STARLINK-5499,PAYLOAD,2024-07-21 13:10:08,14.98334408,0.000278,70.0019,287.6747,265.9552,94.1289,-0.0001356,-1.711e-05,0.0,0 STARLINK-5499,1 55764U 23028Z   24203.54871209 -.00001711  00000-0 -13560-3 0  9999,2 55764  70.0019 287.6747 0002780 265.9552  94.1289 14.98334408 77234,6950.179,96.107,573.976,570.112,0.0
55764.0,STARLINK-5499,PAYLOAD,2024-07-22 05:11:29,14.9833249,0.000269,70.0018,285.9914,264.0211,96.0642,0.0001542,1.747e-05,0.0,0 STARLINK-5499,1 55764U 23028Z   24204.21631283  .00001747  00000-0  15420-3 0  9994,2 55764  70.0018 285.9914 0002690 264.0211  96.0642 14.98332490 77336,6950.185,96.107,573.92,570.181,0.0
55764.0,STARLINK-5499,PAYLOAD,2024-07-22 14:48:17,14.98333692,0.0002693,70.0003,284.9814,262.3758,97.7095,0.00014506,1.638e-05,0.0,0 STARLINK-5499,1 55764U 23028Z   24204.61687227  .00001638  00000-0  14506-3 0  9990,2 55764  70.0003 284.9814 0002693 262.3758  97.7095 14.98333692 77399,6950.181,96.107,573.918,570.175,0.0
55764.0,STARLINK-5499,PAYLOAD,2024-07-23 10:01:54,14.98335371,0.000281,69.9999,282.9616,261.2859,98.7982,0.00020705,2.379e-05,0.0,0 STARLINK-5499,1 55764U 23028Z   24205.41798974  .00002379  00000-0  20705-3 0  9992,2 55764  69.9999 282.9616 0002810 261.2859  98.7982 14.98335371 77515,6950.176,96.107,573.994,570.088,0.0
55764.0,STARLINK-5499,PAYLOAD,2024-07-24 05:15:31,14.98331723,0.0002925,70.0003,280.941,265.5665,94.516,2.0966e-05,1.57e-06,0.0,0 STARLINK-5499,1 55764U 23028Z   24206.21911149  .00000157  00000-0  20966-4 0  9994,2 55764  70.0003 280.9410 0002925 265.5665  94.5160 14.98331723 77635,6950.188,96.107,574.085,570.02,0.0
55764.0,STARLINK-5499,PAYLOAD,2024-07-24 10:03:55,14.98328699,0.0002944,69.9994,280.4368,265.5917,94.4905,3.2876e-06,-5.4e-07,0.0,0 STARLINK-5499,1 55764U 23028Z   24206.41939600 -.00000054  00000-0  32876-5 0  9999,2 55764  69.9994 280.4368 0002944 265.5917  94.4905 14.98328699 77666,6950.197,96.107,574.108,570.016,0.0
55764.0,STARLINK-5499,PAYLOAD,2024-07-24 14:52:19,14.9832892,0.0002944,69.9994,279.9318,265.8194,94.2628,1.8753e-06,-7.1e-07,0.0,0 STARLINK-5499,1 55764U 23028Z   24206.61967592 -.00000071  00000-0  18753-5 0  9999,2 55764  69.9994 279.9318 0002944 265.8194  94.2628 14.98328920 77694,6950.196,96.107,574.107,570.015,0.0
55764.0,STARLINK-5499,PAYLOAD,2024-07-25 05:17:32,14.98329823,0.0003224,69.9992,278.4187,269.8264,90.2526,7.6799e-05,8.23e-06,0.0,0 STARLINK-5499,1 55764U 23028Z   24207.22051326  .00000823  00000-0  76799-4 0  9993,2 55764  69.9992 278.4187 0003224 269.8264  90.2526 14.98329823 77780,6950.193,96.107,574.299,569.818,0.0
55764.0,STARLINK-5499,PAYLOAD,2024-07-25 06:53:40,14.9833176,0.0003186,69.999,278.2486,268.0876,91.9918,9.0345e-05,9.85e-06,0.0,0 STARLINK-5499,1 55764U 23028Z   24207.28727154  .00000985  00000-0  90345-4 0  9990,2 55764  69.9990 278.2486 0003186 268.0876  91.9918 14.98331760 77792,6950.187,96.107,574.267,569.838,0.0
55764.0,STARLINK-5499,PAYLOAD,2024-07-25 14:54:20,14.98336384,0.0003055,69.9992,277.4073,265.7793,94.3017,0.00013277,1.492e-05,0.0,0 STARLINK-5499,1 55764U 23028Z   24207.62106707  .00001492  00000-0  13277-3 0  9995,2 55764  69.9992 277.4073 0003055 265.7793  94.3017 14.98336384 77844,6950.173,96.107,574.161,569.915,0.0
55764.0,STARLINK-5499,PAYLOAD,2024-07-26 05:19:33,14.9832887,0.0002925,69.9991,275.8908,266.5268,93.5557,0.00014592,1.648e-05,0.0,0 STARLINK-5499,1 55764U 23028Z   24208.22191034  .00001648  00000-0  14592-3 0  9993,2 55764  69.9991 275.8908 0002925 266.5268  93.5557 14.98328870 77934,6950.196,96.107,574.094,570.028,0.0
55764.0,STARLINK-5499,PAYLOAD,2024-07-26 10:07:57,14.98330045,0.0002919,69.9991,275.3858,266.5909,93.4916,0.00015567,1.765e-05,0.0,0 STARLINK-5499,1 55764U 23028Z   24208.42218989  .00001765  00000-0  15567-3 0  9997,2 55764  69.9991 275.3858 0002919 266.5909  93.4916 14.98330045 77966,6950.193,96.107,574.087,570.029,0.0
55764.0,STARLINK-5499,PAYLOAD,2024-07-26 21:20:53,14.98336332,0.0002863,69.9993,274.2079,267.7173,92.3658,0.00012039,1.344e-05,0.0,0 STARLINK-5499,1 55764U 23028Z   24208.88950576  .00001344  00000-0  12039-3 0  9996,2 55764  69.9993 274.2079 0002863 267.7173  92.3658 14.98336332 78030,6950.173,96.107,574.028,570.048,0.0
55764.0,STARLINK-5499,PAYLOAD,2024-07-27 05:21:33,14.9833498,0.0002774,69.9995,273.367,265.3252,94.759,4.9741e-05,5.01e-06,0.0,0 STARLINK-5499,1 55764U 23028Z   24209.22330728  .00000501  00000-0  49741-4 0  9991,2 55764  69.9995 273.3670 0002774 265.3252  94.7590 14.98334980 78085,6950.177,96.107,573.97,570.115,0.0
55764.0,STARLINK-5499,PAYLOAD,2024-07-27 06:57:41,14.98334426,0.0002792,69.9995,273.1987,265.0807,95.0033,3.9644e-05,3.8e-06,0.0,0 STARLINK-5499,1 55764U 23028Z   24209.29006752  .00000380  00000-0  39644-4 0  9991,2 55764  69.9995 273.1987 0002792 265.0807  95.0033 14.98334426 78099,6950.179,96.107,573.985,570.104,0.0
